OBJECT_NAME,OBJECT_ID,EPOCH,MEAN_MOTION,ECCENTRICITY,INCLINATION,RA_OF_ASC_NODE,ARG_OF_PERICENTER,MEAN_ANOMALY,EPHEMERIS_TYPE,CLASSIFICATION_TYPE,NORAD_CAT_ID,ELEMENT_SET_NO,REV_AT_EPOCH,BSTAR,MEAN_MOTION_DOT,MEAN_MOTION_DDOT
SAUDISAT 5A,2018-102A,2026-07-01T04:16:23.727360,15.28192222,.0011256,97.3060,243.4899,86.9147,273.3380,0,U,43831,999,41781,.23923E-3,.6511E-4,0
SAUDISAT 5B,2018-102C,2026-07-01T04:40:11.563392,15.28441830,.0011994,97.3170,246.6012,88.5215,271.7399,0,U,43833,999,41793,.22766E-3,.6242E-4,0
GAOFEN-10R,2019-066A,2026-07-01T04:30:08.915616,14.83030668,.0007182,98.0503,135.8689,88.9581,271.2455,0,U,44622,999,36445,.16079E-3,.1253E-4,0
CARTOSAT-3,2019-081A,2026-07-01T04:28:14.238624,15.19234942,.0013314,97.4298,243.8275,104.2487,256.0228,0,U,44804,999,36559,.20627E-3,.4287E-4,0
GAOFEN-12 01,2019-082A,2026-07-01T04:55:58.632672,14.80469931,.0001697,97.8102,188.2150,56.3030,303.8344,0,U,44819,999,35616,.61697E-4,.421E-5,0
CSG-1,2019-092A,2026-07-01T03:51:53.196768,14.82156077,.0001405,97.8891,5.5613,90.3239,269.8135,0,U,44873,999,35354,.64536E-4,.462E-5,0
NEMO-HD,2020-061F,2026-07-01T04:28:58.351008,15.44875920,.0001588,97.1912,244.0001,74.5052,285.6373,0,U,46277,999,32414,.28693E-3,.13391E-3,0
SENTINEL-6A,2020-086A,2026-07-01T03:20:22.745760,12.80929949,.0007834,66.0412,106.0749,269.9806,90.0312,0,U,46984,999,26211,.24151E-4,-.55E-6,0
CAS500-1,2021-022A,2026-07-01T05:10:01.225344,15.20129284,.000345,97.3887,77.1842,228.4608,131.6332,0,U,47932,999,29289,.30925E-3,.662E-4,0
GAOFEN-12 02,2021-026A,2026-07-01T05:14:04.265088,14.80307205,.0004787,97.9925,180.3414,171.5668,188.5625,0,U,48079,999,28383,.6455E-4,.439E-5,0
PLEIADES NEO 3,2021-034A,2026-07-01T03:57:22.059360,14.81673239,.0001333,97.8941,256.7297,93.8106,266.3259,0,U,48268,999,27972,.45309E-4,.305E-5,0
PLEIADES NEO 4,2021-073E,2026-07-01T04:45:57.865824,14.81676762,.0001356,97.8939,256.7596,89.4360,270.7008,0,U,49070,999,26344,.67921E-4,.483E-5,0
LANDSAT 9,2021-088A,2026-07-01T03:16:36.297408,14.57106915,.0001208,98.2277,252.1449,86.8095,273.3241,0,U,49260,999,25303,.97813E-4,.395E-5,0
CSG-2,2022-008A,2026-07-01T04:40:29.036064,14.82152576,.000152,97.8880,5.5888,85.0312,275.1074,0,U,51444,999,23866,.27814E-4,.169E-5,0
GAOFEN-12 03,2022-069A,2026-07-01T04:23:20.266944,14.80056653,.0002417,97.8268,69.7000,87.8609,272.2880,0,U,52912,999,21668,.15926E-3,.1156E-4,0
SWOT,2022-173A,2026-07-01T03:16:07.329216,14.00171233,.0000312,77.6102,16.4785,88.6769,271.4418,0,U,54754,999,18110,.63952E-4,.92E-6,0
GAOFEN-12 04,2023-123A,2026-07-01T04:47:37.486752,14.79752738,.000396,97.9114,100.0118,78.3802,281.7854,0,U,57654,999,15470,.14346E-3,.1027E-4,0
PARS 1,2024-039Q,2026-07-01T04:00:25.312896,15.46016455,.0011206,97.4827,163.5298,70.5262,289.7196,0,U,59065,999,13080,.28291E-3,.13753E-3,0
RESURS-P 4,2024-061A,2026-07-01T04:10:37.474176,15.32210162,.0002974,97.2758,129.8299,109.5011,250.6552,0,U,59371,999,12590,.10823E-3,.3289E-4,0
LEGION 1,2024-081A,2026-07-01T03:32:26.198016,15.16762151,.0008197,97.5018,259.8559,327.3756,32.6970,0,U,59625,999,11965,.23829E-3,.4613E-4,0
LEGION 2,2024-081B,2026-07-01T04:15:53.719776,15.16739272,.0009894,97.5018,259.9828,289.5702,70.4462,0,U,59626,999,11966,.23696E-3,.4585E-4,0
ALOS-4 (DAICHI-4),2024-123A,2026-07-01T03:48:16.443360,14.79469841,.000163,97.9219,279.1341,97.8320,262.3077,0,U,60182,999,10794,.20641E-3,.149E-4,0
LEGION 3,2024-146A,2026-07-01T02:23:59.352000,15.16057328,.0008853,45.0024,315.9367,247.9992,111.9946,0,U,60452,999,10413,.26595E-3,.4946E-4,0
LEGION 4,2024-146B,2026-07-01T02:28:13.446624,15.16143495,.0012113,45.0024,47.8285,25.3634,334.7837,0,U,60453,999,10298,.28992E-3,.5433E-4,0
SENTINEL-2C,2024-157A,2026-07-01T02:07:36.038784,14.30821612,.0000903,98.5690,256.6740,93.2139,266.9147,0,U,60989,999,9497,.65484E-4,.128E-5,0
IONOSFERA-M 1,2024-199A,2026-07-01T04:31:38.496864,14.22756898,.0002196,98.7154,55.2119,91.7002,268.4427,0,U,61735,999,12969,.47046E-4,.61E-6,0
IONOSFERA-M 2,2024-199B,2026-07-01T03:39:42.547392,14.22760210,.0000457,98.7153,55.0868,47.2828,312.8389,0,U,61736,999,13281,.52159E-4,.73E-6,0
PRSC-EO1,2025-012A,2026-06-29T07:45:24.437664,15.17758644,.00058235,97.4228,252.5458,202.3113,157.7868,0,U,62725,999,8003,.31012403E-3,.6199E-4,0
BIOMASS,2025-090A,2026-07-01T01:56:59.347680,14.66987387,.0001213,98.0745,9.1923,89.4176,270.7167,0,U,63772,999,6272,.20069E-3,.1076E-4,0
GOSAT-GW (IBUKI GW),2025-141A,2026-07-01T04:00:58.944096,14.67555429,.0001427,98.0569,119.2573,84.5144,275.6223,0,U,64694,999,5389,.13134E-3,.697E-5,0
IONOSFERA-M 3,2025-155A,2026-07-01T04:23:12.283584,14.21488686,.0001764,98.6031,143.7359,133.5961,226.5363,0,U,64876,999,4839,.27884E-4,.18E-6,0
