SAUDISAT 5A             
1 43831U 18102A   26182.17805240  .00006511  00000+0  23923-3 0  9991
2 43831  97.3060 243.4899 0011256  86.9147 273.3380 15.28192222417816
SAUDISAT 5B             
1 43833U 18102C   26182.19457828  .00006242  00000+0  22766-3 0  9995
2 43833  97.3170 246.6012 0011994  88.5215 271.7399 15.28441830417932
GAOFEN-10R              
1 44622U 19066A   26182.18760319  .00001253  00000+0  16079-3 0  9990
2 44622  98.0503 135.8689 0007182  88.9581 271.2455 14.83030668364459
CARTOSAT-3              
1 44804U 19081A   26182.18627591  .00004287  00000+0  20627-3 0  9997
2 44804  97.4298 243.8275 0013314 104.2487 256.0228 15.19234942365593
GAOFEN-12 01            
1 44819U 19082A   26182.20553973  .00000421  00000+0  61697-4 0  9998
2 44819  97.8102 188.2150 0001697  56.3030 303.8344 14.80469931356161
CSG-1                   
1 44873U 19092A   26182.16103237  .00000462  00000+0  64536-4 0  9998
2 44873  97.8891   5.5613 0001405  90.3239 269.8135 14.82156077353541
NEMO-HD                 
1 46277U 20061F   26182.18678647  .00013391  00000+0  28693-3 0  9998
2 46277  97.1912 244.0001 0001588  74.5052 285.6373 15.44875920324146
SENTINEL-6A             
1 46984U 20086A   26182.13915215 -.00000055  00000+0  24151-4 0  9990
2 46984  66.0412 106.0749 0007834 269.9806  90.0312 12.80929949262111
CAS500-1                
1 47932U 21022A   26182.21529196  .00006620  00000+0  30925-3 0  9991
2 47932  97.3887  77.1842 0003450 228.4608 131.6332 15.20129284292893
GAOFEN-12 02            
1 48079U 21026A   26182.21810492  .00000439  00000+0  64550-4 0  9994
2 48079  97.9925 180.3414 0004787 171.5668 188.5625 14.80307205283831
PLEIADES NEO 3          
1 48268U 21034A   26182.16483865  .00000305  00000+0  45309-4 0  9990
2 48268  97.8941 256.7297 0001333  93.8106 266.3259 14.81673239279727
PLEIADES NEO 4          
1 49070U 21073E   26182.19858641  .00000483  00000+0  67921-4 0  9997
2 49070  97.8939 256.7596 0001356  89.4360 270.7008 14.81676762263443
LANDSAT 9               
1 49260U 21088A   26182.13653122  .00000395  00000+0  97813-4 0  9990
2 49260  98.2277 252.1449 0001208  86.8095 273.3241 14.57106915253036
CSG-2                   
1 51444U 22008A   26182.19478051  .00000169  00000+0  27814-4 0  9995
2 51444  97.8880   5.5888 0001520  85.0312 275.1074 14.82152576238663
GAOFEN-12 03            
1 52912U 22069A   26182.18287346  .00001156  00000+0  15926-3 0  9994
2 52912  97.8268  69.7000 0002417  87.8609 272.2880 14.80056653216685
SWOT                    
1 54754U 22173A   26182.13619594  .00000092  00000+0  63952-4 0  9996
2 54754  77.6102  16.4785 0000312  88.6769 271.4418 14.00171233181101
GAOFEN-12 04            
1 57654U 23123A   26182.19973943  .00001027  00000+0  14346-3 0  9992
2 57654  97.9114 100.0118 0003960  78.3802 281.7854 14.79752738154702
PARS 1                  
1 59065U 24039Q   26182.16695964  .00013753  00000+0  28291-3 0  9991
2 59065  97.4827 163.5298 0011206  70.5262 289.7196 15.46016455130801
RESURS-P 4              
1 59371U 24061A   26182.17404484  .00003289  00000+0  10823-3 0  9997
2 59371  97.2758 129.8299 0002974 109.5011 250.6552 15.32210162125909
LEGION 1                
1 59625U 24081A   26182.14752544  .00004613  00000+0  23829-3 0  9993
2 59625  97.5018 259.8559 0008197 327.3756  32.6970 15.16762151119654
LEGION 2                
1 59626U 24081B   26182.17770509  .00004585  00000+0  23696-3 0  9998
2 59626  97.5018 259.9828 0009894 289.5702  70.4462 15.16739272119665
ALOS-4 (DAICHI-4)       
1 60182U 24123A   26182.15852365  .00001490  00000+0  20641-3 0  9992
2 60182  97.9219 279.1341 0001630  97.8320 262.3077 14.79469841107943
LEGION 3                
1 60452U 24146A   26182.09999250  .00004946  00000+0  26595-3 0  9998
2 60452  45.0024 315.9367 0008853 247.9992 111.9946 15.16057328104132
LEGION 4                
1 60453U 24146B   26182.10293341  .00005433  00000+0  28992-3 0  9994
2 60453  45.0024  47.8285 0012113  25.3634 334.7837 15.16143495102984
SENTINEL-2C             
1 60989U 24157A   26182.08861156  .00000128  00000+0  65484-4 0  9996
2 60989  98.5690 256.6740 0000903  93.2139 266.9147 14.30821612 94972
IONOSFERA-M 1           
1 61735U 24199A   26182.18864001  .00000061  00000+0  47046-4 0  9995
2 61735  98.7154  55.2119 0002196  91.7002 268.4427 14.22756898129690
IONOSFERA-M 2           
1 61736U 24199B   26182.15257578  .00000073  00000+0  52159-4 0  9992
2 61736  98.7153  55.0868 0000457  47.2828 312.8389 14.22760210132811
PRSC-EO1                
1 62725U 25012A   26180.32319951  .00006199  00000+0  31012-3 0  9996
2 62725  97.4228 252.5458 0005823 202.3113 157.7868 15.17758644 80038
BIOMASS                 
1 63772U 25090A   26182.08124245  .00001076  00000+0  20069-3 0  9999
2 63772  98.0745   9.1923 0001213  89.4176 270.7167 14.66987387 62722
GOSAT-GW (IBUKI GW)     
1 64694U 25141A   26182.16734889  .00000697  00000+0  13134-3 0  9993
2 64694  98.0569 119.2573 0001427  84.5144 275.6223 14.67555429 53896
IONOSFERA-M 3           
1 64876U 25155A   26182.18278106  .00000018  00000+0  27884-4 0  9992
2 64876  98.6031 143.7359 0001764 133.5961 226.5363 14.21488686 48397
